{
    "links": {
        "self": "http://www.neowsapp.com/rest/v1/neo/3698498?api_key=iIulBulltgU6a56xZRHN4H3l9WmuAYTsLGpBGhQ2"
    },
    "id": "3698498",
    "neo_reference_id": "3698498",
    "name": "(2014 HW196)",
    "designation": "2014 HW196",
    "nasa_jpl_url": "http://ssd.jpl.nasa.gov/sbdb.cgi?sstr=3698498",
    "absolute_magnitude_h": 25.6,
    "estimated_diameter": {
        "kilometers": {
            "estimated_diameter_min": 0.0201629919,
            "estimated_diameter_max": 0.0450858206
        },
        "meters": {
            "estimated_diameter_min": 20.1629919443,
            "estimated_diameter_max": 45.0858206172
        },
        "miles": {
            "estimated_diameter_min": 0.0125286985,
            "estimated_diameter_max": 0.0280150214
        },
        "feet": {
            "estimated_diameter_min": 66.1515504905,
            "estimated_diameter_max": 147.9193637137
        }
    },
    "is_potentially_hazardous_asteroid": false,
    "close_approach_data": [
        {
            "close_approach_date": "2014-03-22",
            "close_approach_date_full": "2014-Mar-22 12:56",
            "epoch_date_close_approach": 1395492960000,
            "relative_velocity": {
                "kilometers_per_second": "10.6483860092",
                "kilometers_per_hour": "38334.189633034",
                "miles_per_hour": "23819.374663926"
            },
            "miss_distance": {
                "astronomical": "0.1614005037",
                "lunar": "62.7847959393",
                "kilometers": "24145171.570447119",
                "miles": "15003113.9102394822"
            },
            "orbiting_body": "Earth"
        }
    ],
    "orbital_data": {
        "orbit_id": "6",
        "orbit_determination_date": "2017-04-06 08:41:03",
        "first_observation_date": "2014-04-23",
        "last_observation_date": "2014-04-25",
        "data_arc_in_days": 2,
        "observations_used": 26,
        "orbit_uncertainty": "9",
        "minimum_orbit_intersection": ".131427",
        "jupiter_tisserand_invariant": "3.643",
        "epoch_osculation": "2456771.5",
        "eccentricity": ".5383395547236411",
        "semi_major_axis": "1.973627870150141",
        "inclination": "14.17277134845532",
        "ascending_node_longitude": "34.18087653932216",
        "orbital_period": "1012.736192641075",
        "perihelion_distance": ".9111459213433457",
        "perihelion_argument": "99.35054614189698",
        "aphelion_distance": "3.036109818956936",
        "perihelion_time": "2456697.656432722450",
        "mean_anomaly": "26.24936722226887",
        "mean_motion": ".3554726320792094",
        "equinox": "J2000",
        "orbit_class": {
            "orbit_class_type": "APO",
            "orbit_class_description": "Near-Earth asteroid orbits which cross the Earth’s orbit similar to that of 1862 Apollo",
            "orbit_class_range": "a (semi-major axis) > 1.0 AU; q (perihelion) < 1.017 AU"
        }
    },
    "is_sentry_object": false
}